{
    "links": {
        "self": "http://www.neowsapp.com/rest/v1/neo/3511914?api_key=iIulBulltgU6a56xZRHN4H3l9WmuAYTsLGpBGhQ2"
    },
    "id": "3511914",
    "neo_reference_id": "3511914",
    "name": "(2010 FB)",
    "designation": "2010 FB",
    "nasa_jpl_url": "http://ssd.jpl.nasa.gov/sbdb.cgi?sstr=3511914",
    "absolute_magnitude_h": 23.8,
    "estimated_diameter": {
        "kilometers": {
            "estimated_diameter_min": 0.046190746,
            "estimated_diameter_max": 0.1032856481
        },
        "meters": {
            "estimated_diameter_min": 46.1907460282,
            "estimated_diameter_max": 103.2856480504
        },
        "miles": {
            "estimated_diameter_min": 0.0287015901,
            "estimated_diameter_max": 0.0641787064
        },
        "feet": {
            "estimated_diameter_min": 151.544447199,
            "estimated_diameter_max": 338.8636855496
        }
    },
    "is_potentially_hazardous_asteroid": false,
    "close_approach_data": [
        {
            "close_approach_date": "2009-09-06",
            "close_approach_date_full": "2009-Sep-06 15:10",
            "epoch_date_close_approach": 1252249800000,
            "relative_velocity": {
                "kilometers_per_second": "12.120507863",
                "kilometers_per_hour": "43633.8283066632",
                "miles_per_hour": "27112.3640386597"
            },
            "miss_distance": {
                "astronomical": "0.4405728475",
                "lunar": "171.3828376775",
                "kilometers": "65908759.565834825",
                "miles": "40953804.141077585"
            },
            "orbiting_body": "Earth"
        },
        {
            "close_approach_date": "2010-03-09",
            "close_approach_date_full": "2010-Mar-09 00:22",
            "epoch_date_close_approach": 1268094120000,
            "relative_velocity": {
                "kilometers_per_second": "14.5383416816",
                "kilometers_per_hour": "52338.030053796",
                "miles_per_hour": "32520.8165075934"
            },
            "miss_distance": {
                "astronomical": "0.0568021134",
                "lunar": "22.0960221126",
                "kilometers": "8497475.176138458",
                "miles": "5280086.2336004004"
            },
            "orbiting_body": "Earth"
        },
        {
            "close_approach_date": "2013-09-21",
            "close_approach_date_full": "2013-Sep-21 13:07",
            "epoch_date_close_approach": 1379768820000,
            "relative_velocity": {
                "kilometers_per_second": "15.2845185051",
                "kilometers_per_hour": "55024.2666182923",
                "miles_per_hour": "34189.9394440161"
            },
            "miss_distance": {
                "astronomical": "0.119288843",
                "lunar": "46.403359927",
                "kilometers": "17845356.82756441",
                "miles": "11088590.547872458"
            },
            "orbiting_body": "Earth"
        }
    ],
    "orbital_data": {
        "orbit_id": "11",
        "orbit_determination_date": "2017-04-06 08:58:09",
        "first_observation_date": "2010-03-16",
        "last_observation_date": "2010-03-21",
        "data_arc_in_days": 5,
        "observations_used": 55,
        "orbit_uncertainty": "8",
        "minimum_orbit_intersection": ".0565696",
        "jupiter_tisserand_invariant": "5.196",
        "epoch_osculation": "2455273.5",
        "eccentricity": ".2856419848521669",
        "semi_major_axis": "1.193770963731085",
        "inclination": "24.16512029837634",
        "ascending_node_longitude": "172.0996071747186",
        "orbital_period": "476.4089851833128",
        "perihelion_distance": ".8527798561920535",
        "perihelion_argument": "276.6335308112834",
        "aphelion_distance": "1.534762071270116",
        "perihelion_time": "2455199.965649937675",
        "mean_anomaly": "55.56647092256448",
        "mean_motion": ".7556532542338157",
        "equinox": "J2000",
        "orbit_class": {
            "orbit_class_type": "APO",
            "orbit_class_description": "Near-Earth asteroid orbits which cross the Earth’s orbit similar to that of 1862 Apollo",
            "orbit_class_range": "a (semi-major axis) > 1.0 AU; q (perihelion) < 1.017 AU"
        }
    },
    "is_sentry_object": false
}